0 OV1-5 DEB
1 05599U 66025H   13282.14231631  .00001577  00000-0  41795-3 0  1210
2 05599 144.6167 031.2973 0058780 006.0192 354.1208 14.36282385434332
0 OV1-5 DEB
1 05599U 66025H   13283.18513012  .00001544  00000-0  40680-3 0  1228
2 05599 144.6166 036.9896 0058658 014.2038 346.0301 14.36285217434488
0 OV1-5 DEB
1 05599U 66025H   13286.17450973  .00001678  00000-0  45103-3 0  1241
2 05599 144.6169 053.3075 0058399 037.6978 322.7796 14.36293706434916
0 OV1-5 DEB
1 05599U 66025H   13287.28682883  .00001998  00000-0  55631-3 0  1254
2 05599 144.6168 059.3785 0058452 046.4221 314.1313 14.36297459435075
0 OV1-5 DEB
1 05599U 66025H   13289.02481355  .00002562  00000-0  74210-3 0  1262
2 05599 144.6160 068.8649 0058416 060.0693 300.5791 14.36310299435321
0 OV1-5 DEB
1 05599U 66025H   13290.27614969  .00002842  00000-0  83432-3 0  1278
2 05599 144.6168 075.6966 0058426 069.9455 290.7520 14.36317751435502
0 OV1-5 DEB
1 05599U 66025H   13291.31892144  .00003386  00000-0  10133-2 0  1289
2 05599 144.6170 081.3884 0058390 077.8941 282.8289 14.36322112435653
0 OV1-5 DEB
1 05599U 66025H   13293.26541198  .00003980  00000-0  12089-2 0  1298
2 05599 144.6167 092.0134 0058389 093.0565 267.6812 14.36333206435936
0 OV1-5 DEB
1 05599U 66025H   13294.30816437  .00004252  00000-0  12981-2 0  1301
2 05599 144.6166 097.7054 0058397 101.2604 259.4657 14.36339544436087
0 OV1-5 DEB
1 05599U 66025H   13295.35091030  .00004488  00000-0  13758-2 0  1316
2 05599 144.6169 103.3979 0058469 109.4223 251.2797 14.36346641436235
